start=new Date('2023-07-04T00:00:00.000Z').valueOf();
sats=[{"ECCENTRICITY":"0.00018130","SITE":"AFETR","ARG_OF_PERICENTER":"262.5417","PERIOD":"95.785","TIME_SYSTEM":"UTC","REF_FRAME":"TEME","GP_ID":"234695736","TLE_LINE1":"1 56012U 23042AC  23184.53264663 -.00126015  00000-0 -92733-2 0  9991","REV_AT_EPOCH":"1595","RCS_SIZE":"LARGE","FILE":"3948725","OBJECT_TYPE":"PAYLOAD","COUNTRY_CODE":"US","EPOCH":"2023-07-03T12:47:00.668832","CENTER_NAME":"EARTH","MEAN_MOTION_DOT":"-0.00126015","LAUNCH_DATE":"2023-03-24","PERIAPSIS":"555.260","MEAN_MOTION_DDOT":"0.0000000000000","MEAN_ANOMALY":"97.5219","ELEMENT_SET_NO":"999","SEMIMAJOR_AXIS":"6934.652","MEAN_MOTION":"15.03369608","BSTAR":"-0.00927330000000","RA_OF_ASC_NODE":"329.4832","APOAPSIS":"557.774","EPHEMERIS_TYPE":"0","TLE_LINE2":"2 56012  43.0010 329.4832 0001813 262.5417  97.5219 15.03369608 15959","OBJECT_ID":"2023-042AC","CLASSIFICATION_TYPE":"U","NORAD_CAT_ID":"56012","MEAN_ELEMENT_THEORY":"SGP4","INCLINATION":"43.0010","OBJECT_NAME":"STARLINK-5940","DECAY_DATE":null},{"NORAD_CAT_ID":"56013","MEAN_ELEMENT_THEORY":"SGP4","INCLINATION":"43.0026","DECAY_DATE":null,"OBJECT_NAME":"STARLINK-5941","RA_OF_ASC_NODE":"340.4863","APOAPSIS":"560.001","BSTAR":"0.00007468500000","EPHEMERIS_TYPE":"0","TLE_LINE2":"2 56013  43.0026 340.4863 0001328 272.4816  87.5874 15.02536432 15842","CLASSIFICATION_TYPE":"U","OBJECT_ID":"2023-042AD","EPOCH":"2023-07-03T17:21:44.386560","CENTER_NAME":"EARTH","MEAN_MOTION_DOT":"0.00000805","PERIAPSIS":"558.159","LAUNCH_DATE":"2023-03-24","OBJECT_TYPE":"PAYLOAD","COUNTRY_CODE":"US","ELEMENT_SET_NO":"999","SEMIMAJOR_AXIS":"6937.215","MEAN_MOTION":"15.02536432","MEAN_MOTION_DDOT":"0.0000000000000","MEAN_ANOMALY":"87.5874","REF_FRAME":"TEME","GP_ID":"234695762","ECCENTRICITY":"0.00013280","SITE":"AFETR","TIME_SYSTEM":"UTC","PERIOD":"95.838","ARG_OF_PERICENTER":"272.4816","FILE":"3948704","REV_AT_EPOCH":"1584","TLE_LINE1":"1 56013U 23042AD  23184.72343040  .00000805  00000-0  74685-4 0  9994","RCS_SIZE":"LARGE"},{"TLE_LINE2":"2 56014  43.0008 336.7991 0001711 269.8547 297.8339 15.02551450 15759","EPHEMERIS_TYPE":"0","CLASSIFICATION_TYPE":"U","OBJECT_ID":"2023-042AE","RA_OF_ASC_NODE":"336.7991","APOAPSIS":"560.221","BSTAR":"-0.00156520000000","OBJECT_NAME":"STARLINK-5942","DECAY_DATE":null,"MEAN_ELEMENT_THEORY":"SGP4","NORAD_CAT_ID":"56014","INCLINATION":"43.0008","FILE":"3947251","RCS_SIZE":"LARGE","TLE_LINE1":"1 56014U 23042AE  23183.16667824 -.00021292  00000-0 -15652-2 0  9993","REV_AT_EPOCH":"1575","REF_FRAME":"TEME","GP_ID":"234661974","ECCENTRICITY":"0.00017110","PERIOD":"95.837","TIME_SYSTEM":"UTC","ARG_OF_PERICENTER":"269.8547","SITE":"AFETR","ELEMENT_SET_NO":"999","SEMIMAJOR_AXIS":"6937.169","MEAN_MOTION":"15.02551450","MEAN_MOTION_DDOT":"0.0000000000000","MEAN_ANOMALY":"297.8339","EPOCH":"2023-07-02T04:00:00.999936","LAUNCH_DATE":"2023-03-24","PERIAPSIS":"557.847","CENTER_NAME":"EARTH","MEAN_MOTION_DOT":"-0.00021292","OBJECT_TYPE":"PAYLOAD","COUNTRY_CODE":"US"},{"SITE":"AFETR","PERIOD":"95.776","TIME_SYSTEM":"UTC","ARG_OF_PERICENTER":"280.3212","ECCENTRICITY":"0.00017480","GP_ID":"234676434","REF_FRAME":"TEME","REV_AT_EPOCH":"1581","TLE_LINE1":"1 56015U 23042AF  23183.59977338 -.00115706  00000-0 -84687-2 0  9993","RCS_SIZE":"LARGE","FILE":"3947798","COUNTRY_CODE":"US","OBJECT_TYPE":"PAYLOAD","MEAN_MOTION_DOT":"-0.00115706","CENTER_NAME":"EARTH","PERIAPSIS":"554.865","LAUNCH_DATE":"2023-03-24","EPOCH":"2023-07-02T14:23:40.420032","MEAN_ANOMALY":"79.7433","MEAN_MOTION_DDOT":"0.0000000000000","MEAN_MOTION":"15.03512518","SEMIMAJOR_AXIS":"6934.212","ELEMENT_SET_NO":"999","BSTAR":"-0.00846870000000","APOAPSIS":"557.290","RA_OF_ASC_NODE":"334.5219","OBJECT_ID":"2023-042AF","CLASSIFICATION_TYPE":"U","EPHEMERIS_TYPE":"0","TLE_LINE2":"2 56015  43.0011 334.5219 0001748 280.3212  79.7433 15.03512518 15812","INCLINATION":"43.0011","NORAD_CAT_ID":"56015","MEAN_ELEMENT_THEORY":"SGP4","OBJECT_NAME":"STARLINK-5939","DECAY_DATE":null},{"REF_FRAME":"TEME","GP_ID":"234687993","ECCENTRICITY":"0.00013290","SITE":"AFETR","TIME_SYSTEM":"UTC","PERIOD":"95.838","ARG_OF_PERICENTER":"276.4877","FILE":"3948283","REV_AT_EPOCH":"1593","TLE_LINE1":"1 56016U 23042AG  23184.37587702 -.00000033  00000-0  12625-4 0  9993","RCS_SIZE":"LARGE","EPOCH":"2023-07-03T09:01:15.774528","MEAN_MOTION_DOT":"-0.00000033","CENTER_NAME":"EARTH","PERIAPSIS":"558.149","LAUNCH_DATE":"2023-03-24","OBJECT_TYPE":"PAYLOAD","COUNTRY_CODE":"US","SEMIMAJOR_AXIS":"6937.206","ELEMENT_SET_NO":"999","MEAN_MOTION":"15.02539416","MEAN_MOTION_DDOT":"0.0000000000000","MEAN_ANOMALY":"83.5814","RA_OF_ASC_NODE":"330.0264","APOAPSIS":"559.993","BSTAR":"0.00001262500000","EPHEMERIS_TYPE":"0","TLE_LINE2":"2 56016  43.0009 330.0264 0001329 276.4877  83.5814 15.02539416 15933","OBJECT_ID":"2023-042AG","CLASSIFICATION_TYPE":"U","MEAN_ELEMENT_THEORY":"SGP4","NORAD_CAT_ID":"56016","INCLINATION":"43.0009","DECAY_DATE":null,"OBJECT_NAME":"STARLINK-5943"},{"INCLINATION":"43.0007","NORAD_CAT_ID":"56017","MEAN_ELEMENT_THEORY":"SGP4","DECAY_DATE":null,"OBJECT_NAME":"STARLINK-5934","APOAPSIS":"560.204","RA_OF_ASC_NODE":"336.7263","BSTAR":"-0.00148750000000","CLASSIFICATION_TYPE":"U","OBJECT_ID":"2023-042AH","TLE_LINE2":"2 56017  43.0007 336.7263 0001695 264.5664 333.1634 15.02553367 15757","EPHEMERIS_TYPE":"0","PERIAPSIS":"557.852","LAUNCH_DATE":"2023-03-24","MEAN_MOTION_DOT":"-0.00020249","CENTER_NAME":"EARTH","EPOCH":"2023-07-02T04:00:00.999936","COUNTRY_CODE":"US","OBJECT_TYPE":"PAYLOAD","MEAN_MOTION":"15.02553367","SEMIMAJOR_AXIS":"6937.163","ELEMENT_SET_NO":"999","MEAN_ANOMALY":"333.1634","MEAN_MOTION_DDOT":"0.0000000000000","GP_ID":"234663274","REF_FRAME":"TEME","TIME_SYSTEM":"UTC","PERIOD":"95.837","ARG_OF_PERICENTER":"264.5664","SITE":"AFETR","ECCENTRICITY":"0.00016950","FILE":"3947289","RCS_SIZE":"LARGE","TLE_LINE1":"1 56017U 23042AH  23183.16667824 -.00020249  00000-0 -14875-2 0  9993","REV_AT_EPOCH":"1575"},{"GP_ID":"234681206","REF_FRAME":"TEME","SITE":"AFETR","PERIOD":"95.838","ARG_OF_PERICENTER":"273.7942","TIME_SYSTEM":"UTC","ECCENTRICITY":"0.00016160","FILE":"3947989","RCS_SIZE":"LARGE","TLE_LINE1":"1 56018U 23042AJ  23183.77979336  .00000796  00000-0  73985-4 0  9997","REV_AT_EPOCH":"1584","MEAN_MOTION_DOT":"0.00000796","CENTER_NAME":"EARTH","PERIAPSIS":"557.956","LAUNCH_DATE":"2023-03-24","EPOCH":"2023-07-02T18:42:54.146304","COUNTRY_CODE":"US","OBJECT_TYPE":"PAYLOAD","MEAN_MOTION":"15.02537472","ELEMENT_SET_NO":"999","SEMIMAJOR_AXIS":"6937.212","MEAN_ANOMALY":"86.2715","MEAN_MOTION_DDOT":"0.0000000000000","APOAPSIS":"560.198","RA_OF_ASC_NODE":"333.2930","BSTAR":"0.00007398500000","CLASSIFICATION_TYPE":"U","OBJECT_ID":"2023-042AJ","EPHEMERIS_TYPE":"0","TLE_LINE2":"2 56018  43.0013 333.2930 0001616 273.7942  86.2715 15.02537472 15847","INCLINATION":"43.0013","NORAD_CAT_ID":"56018","MEAN_ELEMENT_THEORY":"SGP4","OBJECT_NAME":"STARLINK-5945","DECAY_DATE":null},{"OBJECT_NAME":"STARLINK-5949","DECAY_DATE":null,"INCLINATION":"43.0008","NORAD_CAT_ID":"56019","MEAN_ELEMENT_THEORY":"SGP4","CLASSIFICATION_TYPE":"U","OBJECT_ID":"2023-042AK","EPHEMERIS_TYPE":"0","TLE_LINE2":"2 56019  43.0008 336.7701 0001529 266.1662 313.4787 15.02562699 15757","BSTAR":"-0.00146360000000","APOAPSIS":"560.060","RA_OF_ASC_NODE":"336.7701","MEAN_ANOMALY":"313.4787","MEAN_MOTION_DDOT":"0.0000000000000","MEAN_MOTION":"15.02562699","ELEMENT_SET_NO":"999","SEMIMAJOR_AXIS":"6937.134","COUNTRY_CODE":"US","OBJECT_TYPE":"PAYLOAD","MEAN_MOTION_DOT":"-0.00019933","CENTER_NAME":"EARTH","LAUNCH_DATE":"2023-03-24","PERIAPSIS":"557.939","EPOCH":"2023-07-02T04:00:00.999936","REV_AT_EPOCH":"1575","TLE_LINE1":"1 56019U 23042AK  23183.16667824 -.00019933  00000-0 -14636-2 0  9998","RCS_SIZE":"LARGE","FILE":"3947255","SITE":"AFETR","ARG_OF_PERICENTER":"266.1662","PERIOD":"95.836","TIME_SYSTEM":"UTC","ECCENTRICITY":"0.00015290","GP_ID":"234662557","REF_FRAME":"TEME"},{"OBJECT_NAME":"STARLINK-5912","DECAY_DATE":null,"NORAD_CAT_ID":"56020","MEAN_ELEMENT_THEORY":"SGP4","INCLINATION":"43.0011","EPHEMERIS_TYPE":"0","TLE_LINE2":"2 56020  43.0011 333.3188 0001441 271.6987  88.3690 15.02536088 15843","CLASSIFICATION_TYPE":"U","OBJECT_ID":"2023-042AL","BSTAR":"0.00012957000000","RA_OF_ASC_NODE":"333.3188","APOAPSIS":"560.081","MEAN_MOTION_DDOT":"0.0000000000000","MEAN_ANOMALY":"88.3690","SEMIMAJOR_AXIS":"6937.216","ELEMENT_SET_NO":"999","MEAN_MOTION":"15.02536088","OBJECT_TYPE":"PAYLOAD","COUNTRY_CODE":"US","EPOCH":"2023-07-02T18:47:41.774496","MEAN_MOTION_DOT":"0.00001547","CENTER_NAME":"EARTH","LAUNCH_DATE":"2023-03-24","PERIAPSIS":"558.082","TLE_LINE1":"1 56020U 23042AL  23183.78312239  .00001547  00000-0  12957-3 0  9990","REV_AT_EPOCH":"1584","RCS_SIZE":"LARGE","FILE":"3947989","ECCENTRICITY":"0.00014410","SITE":"AFETR","TIME_SYSTEM":"UTC","PERIOD":"95.838","ARG_OF_PERICENTER":"271.6987","REF_FRAME":"TEME","GP_ID":"234681209"},{"MEAN_ELEMENT_THEORY":"SGP4","NORAD_CAT_ID":"56021","INCLINATION":"43.0007","OBJECT_NAME":"STARLINK-5907","DECAY_DATE":null,"BSTAR":"-0.00154470000000","RA_OF_ASC_NODE":"336.6972","APOAPSIS":"560.245","TLE_LINE2":"2 56021  43.0007 336.6972 0001724 262.5290 347.2376 15.02546691 15755","EPHEMERIS_TYPE":"0","CLASSIFICATION_TYPE":"U","OBJECT_ID":"2023-042AM","OBJECT_TYPE":"PAYLOAD","COUNTRY_CODE":"US","EPOCH":"2023-07-02T04:00:00.999936","LAUNCH_DATE":"2023-03-24","PERIAPSIS":"557.853","MEAN_MOTION_DOT":"-0.00021014","CENTER_NAME":"EARTH","MEAN_MOTION_DDOT":"0.0000000000000","MEAN_ANOMALY":"347.2376","SEMIMAJOR_AXIS":"6937.184","ELEMENT_SET_NO":"999","MEAN_MOTION":"15.02546691","ECCENTRICITY":"0.00017240","PERIOD":"95.837","TIME_SYSTEM":"UTC","ARG_OF_PERICENTER":"262.5290","SITE":"AFETR","REF_FRAME":"TEME","GP_ID":"234662053","RCS_SIZE":"LARGE","TLE_LINE1":"1 56021U 23042AM  23183.16667824 -.00021014  00000-0 -15447-2 0  9995","REV_AT_EPOCH":"1575","FILE":"3947255"}];
